{
  "type": "FeatureCollection",
  "features": [
    {
      "type": "Feature",
      "properties": {
        "norad_id": 33738,
        "name": "FENGYUN 1C DEB",
        "group": "fengyun-1c-debris",
        "lat": -29.444689058916058,
        "lon": -128.20403918859947,
        "alt_km": 1008.2136662603352,
        "timestamp": "2025-12-22T23:36:21.000819+00:00",
        "meta_object_name": "FENGYUN 1C DEB",
        "meta_object_id": "1999-025DJB",
        "meta_epoch": "2025-12-21T10:38:24.542304",
        "meta_mean_motion": 13.99545443,
        "meta_eccentricity": 0.01844931,
        "meta_inclination": 99.1507,
        "meta_ra_of_asc_node": 55.4765,
        "meta_arg_of_pericenter": 357.5118,
        "meta_mean_anomaly": 17.4726,
        "meta_ephemeris_type": 0,
        "meta_classification_type": "U",
        "meta_norad_cat_id": 33738,
        "meta_element_set_no": 999,
        "meta_rev_at_epoch": 89358,
        "meta_bstar": 0.00043721449,
        "meta_mean_motion_dot": 6.93e-06,
        "meta_mean_motion_ddot": 0,
        "tle_line1": "1 33738U 99025DJB 25355.44333961  .00000693  00000+0  43721-3 0  9999",
        "tle_line2": "2 33738  99.1507  55.4765 0184493 357.5118  17.4726 13.99545443893585"
      },
      "geometry": {
        "type": "Point",
        "coordinates": [
          -128.20403918859947,
          -29.444689058916058
        ]
      }
    },
    {
      "type": "Feature",
      "properties": {
        "norad_id": 33740,
        "name": "FENGYUN 1C DEB",
        "group": "fengyun-1c-debris",
        "lat": -0.3806735449220148,
        "lon": 9.637413592415175,
        "alt_km": 854.8233631734911,
        "timestamp": "2025-12-22T23:36:21.000829+00:00",
        "meta_object_name": "FENGYUN 1C DEB",
        "meta_object_id": "1999-025DJD",
        "meta_epoch": "2025-12-18T07:23:22.108128",
        "meta_mean_motion": 14.12325643,
        "meta_eccentricity": 0.00021877,
        "meta_inclination": 98.6868,
        "meta_ra_of_asc_node": 5.0478,
        "meta_arg_of_pericenter": 119.664,
        "meta_mean_anomaly": 240.475,
        "meta_ephemeris_type": 0,
        "meta_classification_type": "U",
        "meta_norad_cat_id": 33740,
        "meta_element_set_no": 999,
        "meta_rev_at_epoch": 90225,
        "meta_bstar": 0.00012962131,
        "meta_mean_motion_dot": 1.96e-06,
        "meta_mean_motion_ddot": 0,
        "tle_line1": "1 33740U 99025DJD 25352.30789477  .00000196  00000+0  12962-3 0  9992",
        "tle_line2": "2 33740  98.6868   5.0478 0002187 119.6640 240.4750 14.12325643902254"
      },
      "geometry": {
        "type": "Point",
        "coordinates": [
          9.637413592415175,
          -0.3806735449220148
        ]
      }
    },
    {
      "type": "Feature",
      "properties": {
        "norad_id": 33741,
        "name": "FENGYUN 1C DEB",
        "group": "fengyun-1c-debris",
        "lat": -53.12482696476931,
        "lon": -78.31826853270871,
        "alt_km": 902.412777632997,
        "timestamp": "2025-12-22T23:36:21.000839+00:00",
        "meta_object_name": "FENGYUN 1C DEB",
        "meta_object_id": "1999-025DJE",
        "meta_epoch": "2025-12-20T17:21:28.699776",
        "meta_mean_motion": 14.09870103,
        "meta_eccentricity": 0.01285709,
        "meta_inclination": 98.5653,
        "meta_ra_of_asc_node": 267.9394,
        "meta_arg_of_pericenter": 65.7344,
        "meta_mean_anomaly": 295.7197,
        "meta_ephemeris_type": 0,
        "meta_classification_type": "U",
        "meta_norad_cat_id": 33741,
        "meta_element_set_no": 999,
        "meta_rev_at_epoch": 56975,
        "meta_bstar": 0.0014103397,
        "meta_mean_motion_dot": 2.64e-05,
        "meta_mean_motion_ddot": 0,
        "tle_line1": "1 33741U 99025DJE 25354.72324884  .00002640  00000+0  14103-2 0  9992",
        "tle_line2": "2 33741  98.5653 267.9394 0128570  65.7344 295.7197 14.09870103569753"
      },
      "geometry": {
        "type": "Point",
        "coordinates": [
          -78.31826853270871,
          -53.12482696476931
        ]
      }
    },
    {
      "type": "Feature",
      "properties": {
        "norad_id": 33745,
        "name": "FENGYUN 1C DEB",
        "group": "fengyun-1c-debris",
        "lat": 47.695373128735376,
        "lon": 24.3299607165418,
        "alt_km": 851.64645855036,
        "timestamp": "2025-12-22T23:36:21.000849+00:00",
        "meta_object_name": "FENGYUN 1C DEB",
        "meta_object_id": "1999-025DJJ",
        "meta_epoch": "2025-12-17T13:22:43.604832",
        "meta_mean_motion": 14.22346964,
        "meta_eccentricity": 0.00542183,
        "meta_inclination": 99.1148,
        "meta_ra_of_asc_node": 28.8825,
        "meta_arg_of_pericenter": 252.2828,
        "meta_mean_anomaly": 107.2426,
        "meta_ephemeris_type": 0,
        "meta_classification_type": "U",
        "meta_norad_cat_id": 33745,
        "meta_element_set_no": 999,
        "meta_rev_at_epoch": 66070,
        "meta_bstar": 0.0010724416,
        "meta_mean_motion_dot": 2.374e-05,
        "meta_mean_motion_ddot": 0,
        "tle_line1": "1 33745U 99025DJJ 25351.55744913  .00002374  00000+0  10724-2 0  9992",
        "tle_line2": "2 33745  99.1148  28.8825 0054218 252.2828 107.2426 14.22346964660700"
      },
      "geometry": {
        "type": "Point",
        "coordinates": [
          24.3299607165418,
          47.695373128735376
        ]
      }
    },
    {
      "type": "Feature",
      "properties": {
        "norad_id": 33747,
        "name": "FENGYUN 1C DEB",
        "group": "fengyun-1c-debris",
        "lat": 35.54062803935065,
        "lon": -81.52352119190208,
        "alt_km": 784.5841091456823,
        "timestamp": "2025-12-22T23:36:21.000863+00:00",
        "meta_object_name": "FENGYUN 1C DEB",
        "meta_object_id": "1999-025DJL",
        "meta_epoch": "2025-12-20T01:28:07.665312",
        "meta_mean_motion": 14.17505011,
        "meta_eccentricity": 0.00910261,
        "meta_inclination": 99.0962,
        "meta_ra_of_asc_node": 88.9142,
        "meta_arg_of_pericenter": 197.1954,
        "meta_mean_anomaly": 162.6131,
        "meta_ephemeris_type": 0,
        "meta_classification_type": "U",
        "meta_norad_cat_id": 33747,
        "meta_element_set_no": 999,
        "meta_rev_at_epoch": 90236,
        "meta_bstar": 0.001836775,
        "meta_mean_motion_dot": 3.837e-05,
        "meta_mean_motion_ddot": 0,
        "tle_line1": "1 33747U 99025DJL 25354.06119983  .00003837  00000+0  18368-2 0  9993",
        "tle_line2": "2 33747  99.0962  88.9142 0091026 197.1954 162.6131 14.17505011902362"
      },
      "geometry": {
        "type": "Point",
        "coordinates": [
          -81.52352119190208,
          35.54062803935065
        ]
      }
    },
    {
      "type": "Feature",
      "properties": {
        "norad_id": 33748,
        "name": "FENGYUN 1C DEB",
        "group": "fengyun-1c-debris",
        "lat": -10.921450979252715,
        "lon": 49.705440833005206,
        "alt_km": 806.8642986519808,
        "timestamp": "2025-12-22T23:36:21.000874+00:00",
        "meta_object_name": "FENGYUN 1C DEB",
        "meta_object_id": "1999-025DJM",
        "meta_epoch": "2025-12-20T21:21:40.065984",
        "meta_mean_motion": 14.32332217,
        "meta_eccentricity": 0.0034916,
        "meta_inclination": 98.5853,
        "meta_ra_of_asc_node": 45.9627,
        "meta_arg_of_pericenter": 216.6923,
        "meta_mean_anomaly": 143.1869,
        "meta_ephemeris_type": 0,
        "meta_classification_type": "U",
        "meta_norad_cat_id": 33748,
        "meta_element_set_no": 999,
        "meta_rev_at_epoch": 91510,
        "meta_bstar": 0.00084448,
        "meta_mean_motion_dot": 2.253e-05,
        "meta_mean_motion_ddot": 0,
        "tle_line1": "1 33748U 99025DJM 25354.89004706  .00002253  00000+0  84448-3 0  9995",
        "tle_line2": "2 33748  98.5853  45.9627 0034916 216.6923 143.1869 14.32332217915106"
      },
      "geometry": {
        "type": "Point",
        "coordinates": [
          49.705440833005206,
          -10.921450979252715
        ]
      }
    },
    {
      "type": "Feature",
      "properties": {
        "norad_id": 35088,
        "name": "FENGYUN 1C DEB",
        "group": "fengyun-1c-debris",
        "lat": 35.7736739735326,
        "lon": 164.27553544351886,
        "alt_km": 984.4151949075376,
        "timestamp": "2025-12-22T23:36:21.000884+00:00",
        "meta_object_name": "FENGYUN 1C DEB",
        "meta_object_id": "1999-025DJQ",
        "meta_epoch": "2025-12-20T06:48:25.112736",
        "meta_mean_motion": 14.12178698,
        "meta_eccentricity": 0.02665925,
        "meta_inclination": 94.6216,
        "meta_ra_of_asc_node": 166.2192,
        "meta_arg_of_pericenter": 179.9936,
        "meta_mean_anomaly": 180.1297,
        "meta_ephemeris_type": 0,
        "meta_classification_type": "U",
        "meta_norad_cat_id": 35088,
        "meta_element_set_no": 999,
        "meta_rev_at_epoch": 58906,
        "meta_bstar": 0.004541836,
        "meta_mean_motion_dot": 0.00011675,
        "meta_mean_motion_ddot": 0,
        "tle_line1": "1 35088U 99025DJQ 25354.28362399  .00011675  00000+0  45418-2 0  9993",
        "tle_line2": "2 35088  94.6216 166.2192 0266592 179.9936 180.1297 14.12178698589068"
      },
      "geometry": {
        "type": "Point",
        "coordinates": [
          164.27553544351886,
          35.7736739735326
        ]
      }
    }
  ]
}